[{"OBJECT_NAME":"GONETS-M 13","OBJECT_ID":"2015-020C","EPOCH":"2026-03-09T22:37:11.759808","MEAN_MOTION":12.42867615,"ECCENTRICITY":0.00136301,"INCLINATION":82.4801,"RA_OF_ASC_NODE":92.5793,"ARG_OF_PERICENTER":182.8748,"MEAN_ANOMALY":177.2255,"EPHEMERIS_TYPE":0,"CLASSIFICATION_TYPE":"U","NORAD_CAT_ID":40554,"ELEMENT_SET_NO":999,"REV_AT_EPOCH":49637,"BSTAR":0.0010222799,"MEAN_MOTION_DOT":1.51e-6,"MEAN_MOTION_DDOT":0},{"OBJECT_NAME":"DELTA 1 DEB","OBJECT_ID":"1967-114D","EPOCH":"2026-03-09T13:43:17.155776","MEAN_MOTION":12.48103481,"ECCENTRICITY":0.0028424,"INCLINATION":102.4564,"RA_OF_ASC_NODE":199.6216,"ARG_OF_PERICENTER":85.6945,"MEAN_ANOMALY":337.3064,"EPHEMERIS_TYPE":0,"CLASSIFICATION_TYPE":"U","NORAD_CAT_ID":3123,"ELEMENT_SET_NO":999,"REV_AT_EPOCH":65633,"BSTAR":0.00019522,"MEAN_MOTION_DOT":-1.9e-7,"MEAN_MOTION_DDOT":0}]
